{
  "type": "FeatureCollection",
  "features": [
    {
      "type": "Feature",
      "properties": {
        "norad_id": 42988,
        "name": "SKYSAT-C10",
        "group": "resource",
        "lat": -75.81335848575954,
        "lon": -94.34967260774332,
        "alt_km": 480.3279424202983,
        "timestamp": "2025-12-11T20:41:14.744799+00:00",
        "meta_object_name": "SKYSAT-C10",
        "meta_object_id": "2017-068B",
        "meta_epoch": "2025-12-11T14:51:46.376064",
        "meta_mean_motion": 15.32023223,
        "meta_eccentricity": 0.00053334,
        "meta_inclination": 97.4256,
        "meta_ra_of_asc_node": 116.467,
        "meta_arg_of_pericenter": 106.5329,
        "meta_mean_anomaly": 253.6499,
        "meta_ephemeris_type": 0,
        "meta_classification_type": "U",
        "meta_norad_cat_id": 42988,
        "meta_element_set_no": 999,
        "meta_rev_at_epoch": 45362,
        "meta_bstar": 0.00052962987,
        "meta_mean_motion_dot": 0.0001632,
        "meta_mean_motion_ddot": 0,
        "tle_line1": "1 42988U 17068B   25345.61928676  .00016320  00000+0  52963-3 0  9996",
        "tle_line2": "2 42988  97.4256 116.4670 0005333 106.5329 253.6499 15.32023223453622"
      },
      "geometry": {
        "type": "Point",
        "coordinates": [
          -94.34967260774332,
          -75.81335848575954
        ]
      }
    },
    {
      "type": "Feature",
      "properties": {
        "norad_id": 42989,
        "name": "SKYSAT-C9",
        "group": "resource",
        "lat": 82.06782093732575,
        "lon": 5.364692094626325,
        "alt_km": 443.1972537980928,
        "timestamp": "2025-12-11T20:41:14.744809+00:00",
        "meta_object_name": "SKYSAT-C9",
        "meta_object_id": "2017-068C",
        "meta_epoch": "2025-12-11T15:35:41.952768",
        "meta_mean_motion": 15.36003973,
        "meta_eccentricity": 0.00106351,
        "meta_inclination": 97.4187,
        "meta_ra_of_asc_node": 115.8948,
        "meta_arg_of_pericenter": 91.1579,
        "meta_mean_anomaly": 269.0883,
        "meta_ephemeris_type": 0,
        "meta_classification_type": "U",
        "meta_norad_cat_id": 42989,
        "meta_element_set_no": 999,
        "meta_rev_at_epoch": 45391,
        "meta_bstar": 0.00055729126,
        "meta_mean_motion_dot": 0.00019517,
        "meta_mean_motion_ddot": 0,
        "tle_line1": "1 42989U 17068C   25345.64979112  .00019517  00000+0  55729-3 0  9995",
        "tle_line2": "2 42989  97.4187 115.8948 0010635  91.1579 269.0883 15.36003973453918"
      },
      "geometry": {
        "type": "Point",
        "coordinates": [
          5.364692094626325,
          82.06782093732575
        ]
      }
    },
    {
      "type": "Feature",
      "properties": {
        "norad_id": 42990,
        "name": "SKYSAT-C8",
        "group": "resource",
        "lat": 71.93256754277392,
        "lon": 92.28530474118229,
        "alt_km": 460.06584086514613,
        "timestamp": "2025-12-11T20:41:14.744819+00:00",
        "meta_object_name": "SKYSAT-C8",
        "meta_object_id": "2017-068D",
        "meta_epoch": "2025-12-11T07:50:04.560288",
        "meta_mean_motion": 15.32872808,
        "meta_eccentricity": 0.00016765,
        "meta_inclination": 97.4277,
        "meta_ra_of_asc_node": 115.3205,
        "meta_arg_of_pericenter": 355.9202,
        "meta_mean_anomaly": 4.2026,
        "meta_ephemeris_type": 0,
        "meta_classification_type": "U",
        "meta_norad_cat_id": 42990,
        "meta_element_set_no": 999,
        "meta_rev_at_epoch": 45349,
        "meta_bstar": 0.00064852075,
        "meta_mean_motion_dot": 0.00020544,
        "meta_mean_motion_ddot": 0,
        "tle_line1": "1 42990U 17068D   25345.32644167  .00020544  00000+0  64852-3 0  9990",
        "tle_line2": "2 42990  97.4277 115.3205 0001676 355.9202   4.2026 15.32872808453498"
      },
      "geometry": {
        "type": "Point",
        "coordinates": [
          92.28530474118229,
          71.93256754277392
        ]
      }
    },
    {
      "type": "Feature",
      "properties": {
        "norad_id": 42991,
        "name": "SKYSAT-C7",
        "group": "resource",
        "lat": -68.08417144772513,
        "lon": 135.8231494825317,
        "alt_km": 479.5610437307696,
        "timestamp": "2025-12-11T20:41:14.744830+00:00",
        "meta_object_name": "SKYSAT-C7",
        "meta_object_id": "2017-068E",
        "meta_epoch": "2025-12-11T14:43:13.522080",
        "meta_mean_motion": 15.32284983,
        "meta_eccentricity": 0.00077056,
        "meta_inclination": 97.4283,
        "meta_ra_of_asc_node": 116.6506,
        "meta_arg_of_pericenter": 60.3877,
        "meta_mean_anomaly": 299.8132,
        "meta_ephemeris_type": 0,
        "meta_classification_type": "U",
        "meta_norad_cat_id": 42991,
        "meta_element_set_no": 999,
        "meta_rev_at_epoch": 45360,
        "meta_bstar": 0.00052497046,
        "meta_mean_motion_dot": 0.00016317,
        "meta_mean_motion_ddot": 0,
        "tle_line1": "1 42991U 17068E   25345.61335095  .00016317  00000+0  52497-3 0  9995",
        "tle_line2": "2 42991  97.4283 116.6506 0007705  60.3877 299.8132 15.32284983453602"
      },
      "geometry": {
        "type": "Point",
        "coordinates": [
          135.8231494825317,
          -68.08417144772513
        ]
      }
    },
    {
      "type": "Feature",
      "properties": {
        "norad_id": 42992,
        "name": "SKYSAT-C6",
        "group": "resource",
        "lat": 49.678674738011736,
        "lon": 108.4916531134975,
        "alt_km": 464.0234540914298,
        "timestamp": "2025-12-11T20:41:14.744840+00:00",
        "meta_object_name": "SKYSAT-C6",
        "meta_object_id": "2017-068F",
        "meta_epoch": "2025-12-11T07:55:25.172544",
        "meta_mean_motion": 15.3144353,
        "meta_eccentricity": 0.00052085,
        "meta_inclination": 97.4319,
        "meta_ra_of_asc_node": 116.8061,
        "meta_arg_of_pericenter": 86.3065,
        "meta_mean_anomaly": 273.8772,
        "meta_ephemeris_type": 0,
        "meta_classification_type": "U",
        "meta_norad_cat_id": 42992,
        "meta_element_set_no": 999,
        "meta_rev_at_epoch": 45354,
        "meta_bstar": 0.00062792772,
        "meta_mean_motion_dot": 0.00019023,
        "meta_mean_motion_ddot": 0,
        "tle_line1": "1 42992U 17068F   25345.33015246  .00019023  00000+0  62793-3 0  9995",
        "tle_line2": "2 42992  97.4319 116.8061 0005208  86.3065 273.8772 15.31443530453543"
      },
      "geometry": {
        "type": "Point",
        "coordinates": [
          108.4916531134975,
          49.678674738011736
        ]
      }
    },
    {
      "type": "Feature",
      "properties": {
        "norad_id": 43111,
        "name": "CARTOSAT-2F",
        "group": "resource",
        "lat": -15.292330517152621,
        "lon": -138.5319833055705,
        "alt_km": 512.5275330053628,
        "timestamp": "2025-12-11T20:41:14.744850+00:00",
        "meta_object_name": "CARTOSAT-2F",
        "meta_object_id": "2018-004A",
        "meta_epoch": "2025-12-11T15:05:17.972736",
        "meta_mean_motion": 15.19262234,
        "meta_eccentricity": 9.329e-05,
        "meta_inclination": 97.4316,
        "meta_ra_of_asc_node": 43.2838,
        "meta_arg_of_pericenter": 140.9074,
        "meta_mean_anomaly": 219.2228,
        "meta_ephemeris_type": 0,
        "meta_classification_type": "U",
        "meta_norad_cat_id": 43111,
        "meta_element_set_no": 999,
        "meta_rev_at_epoch": 43885,
        "meta_bstar": 0.00052222115,
        "meta_mean_motion_dot": 0.00010951,
        "meta_mean_motion_ddot": 0,
        "tle_line1": "1 43111U 18004A   25345.62868024  .00010951  00000+0  52222-3 0  9999",
        "tle_line2": "2 43111  97.4316  43.2838 0000932 140.9074 219.2228 15.19262234438858"
      },
      "geometry": {
        "type": "Point",
        "coordinates": [
          -138.5319833055705,
          -15.292330517152621
        ]
      }
    },
    {
      "type": "Feature",
      "properties": {
        "norad_id": 43259,
        "name": "GAOFEN-1 02",
        "group": "resource",
        "lat": 79.41525741699239,
        "lon": -86.86381820932384,
        "alt_km": 633.5813458508637,
        "timestamp": "2025-12-11T20:41:14.744860+00:00",
        "meta_object_name": "GAOFEN-1 02",
        "meta_object_id": "2018-031A",
        "meta_epoch": "2025-12-11T15:22:15.282624",
        "meta_mean_motion": 14.76475751,
        "meta_eccentricity": 0.00015316,
        "meta_inclination": 98.0803,
        "meta_ra_of_asc_node": 43.4292,
        "meta_arg_of_pericenter": 214.2389,
        "meta_mean_anomaly": 145.8722,
        "meta_ephemeris_type": 0,
        "meta_classification_type": "U",
        "meta_norad_cat_id": 43259,
        "meta_element_set_no": 999,
        "meta_rev_at_epoch": 41502,
        "meta_bstar": 0.00019623325,
        "meta_mean_motion_dot": 1.314e-05,
        "meta_mean_motion_ddot": 0,
        "tle_line1": "1 43259U 18031A   25345.64045466  .00001314  00000+0  19623-3 0  9992",
        "tle_line2": "2 43259  98.0803  43.4292 0001531 214.2389 145.8722 14.76475751415024"
      },
      "geometry": {
        "type": "Point",
        "coordinates": [
          -86.86381820932384,
          79.41525741699239
        ]
      }
    }
  ]
}